STARLINK-5074           
1 55438U 23014AZ  26068.37956910  .00000032  00000+0  10454-4 0  9999
2 55438  70.0006  65.0681 0002779 261.6292  98.4552 14.98327265172010
ICEYE-X48               
1 63253U 25052AV  26068.70765702  .00004541  00000+0  39589-3 0  9999
2 63253  97.6979 322.3976 0002688 141.7433 218.3980 14.97356709 53782
